IRIDIUM 155             
1 43573U 18061E   20290.49775463  .00000077  00000-0  20285-4 0  9991
2 43573  86.4033 201.6288 0001569  76.8426 283.2945 14.34219436116704
IRIDIUM 154             
1 43574U 18061F   20290.47873660  .00000082  00000-0  22355-4 0  9994
2 43574  86.4038 201.6720 0002406  81.0684 279.0784 14.34218954116759
IRIDIUM 163             
1 43575U 18061G   20290.45971879  .00000077  00000-0  20553-4 0  9996
2 43575  86.4036 201.6582 0002350  97.3556 262.7907 14.34217970116720
IRIDIUM 156             
1 43576U 18061H   20290.50410394  .00000076  00000-0  19921-4 0  9999
2 43576  86.4035 201.6444 0001879  91.4475 268.6936 14.34217436116721
IRIDIUM 164             
1 43577U 18061J   20290.48507632  .00000082  00000-0  22098-4 0  9995
2 43577  86.4036 201.6613 0002347  84.8552 275.2912 14.34219754116761
IRIDIUM 159             
1 43578U 18061K   20290.52313864  .00000080  00000-0  21408-4 0  9995
2 43578  86.4034 201.6257 0002302  82.4399 277.7059 14.34218766116736
IRIDIUM 180             
1 43922U 19002A   20290.10402046  .00000095  00000-0  26864-4 0  9996
2 43922  86.3959 138.7280 0003171  89.0344 271.1215 14.34219249 92325
IRIDIUM 176             
1 43923U 19002B   20290.13450855  .00000152  00000-0  20249-4 0  9996
2 43923  86.6095 138.7459 0002470  87.0726 273.0774 14.72252692 94684
IRIDIUM 168             
1 43924U 19002C   20290.09767155  .00000090  00000-0  25105-4 0  9993
2 43924  86.3961 138.7493 0002345  84.4085 275.7378 14.34219205 92264
IRIDIUM 173             
1 43925U 19002D   20290.50360041  .00000094  00000-0  26558-4 0  9990
2 43925  86.3957 138.5527 0002265  86.7244 273.4211 14.34218045 92317
IRIDIUM 169             
1 43926U 19002E   20290.41160554  .00000095  00000-0  24673-4 0  9995
2 43926  86.4275 170.1541 0004126 337.0511  23.0502 14.38612107 92657
IRIDIUM 172             
1 43927U 19002F   20290.49724807  .00000094  00000-0  26621-4 0  9995
2 43927  86.3957 138.5569 0002376  86.6554 273.4914 14.34219841 92316
IRIDIUM 175             
1 43928U 19002G   20290.33222577  .00000155  00000-0  20725-4 0  9993
2 43928  86.6078 138.5313 0002036 108.3084 251.8354 14.72252874 94702
IRIDIUM 171             
1 43929U 19002H   20290.12937992  .00000094  00000-0  26631-4 0  9999
2 43929  86.3968 138.7869 0002326  83.9026 276.2435 14.34219335 92254
IRIDIUM 170             
1 43930U 19002J   20290.07269432  .00000155  00000-0  20682-4 0  9990
2 43930  86.6094 138.7784 0002488  94.0231 266.1271 14.72251414 94686
IRIDIUM 167             
1 43931U 19002K   20290.12303819  .00000091  00000-0  25462-4 0  9995
2 43931  86.3959 138.7175 0002974  86.7483 273.4053 14.34219649 92257
